MULTIPOLYGON (((20 -17.25, 20.5 -17.05, 20.75 -16.75, 20.7 -16.3, 20.4 -16.1, 19.9 -16.15, 19.75 -16.3, 19.7 -16.5, 19.7 -16.2, 19.55 -16.05, 19.55 -15.85, 19.75 -15.8, 19.9 -16, 20.05 -16.05, 20.55 -16.05, 20.8 -16.4, 21 -16.45, 21.15 -16.75, 20.85 -16.75, 20.5 -17.15, 19.8 -17.35, 19.35 -17.95, 19.1 -17.95, 18.95 -18.25, 18.5 -18.35, 18.3 -18.55, 18.3 -18.85, 18.7 -19.1, 18.95 -19.1, 19.45 -19.35, 19.7 -19.35, 20.05 -19.6, 21.15 -19.95, 21.3 -20.15, 21.75 -20.2, 21.95 -20.4, 22.5 -20.45, 22.5 -20.75, 22.95 -21.05, 23.15 -21.1, 23.4 -20.95, 23.65 -20.95, 23.7 -21.25, 23.8 -21.35, 24.25 -21.5, 24.85 -21.3, 25.15 -21.45, 25.3 -21.7, 25.7 -21.8, 26.15 -21.75, 26.8 -22.2, 27.2 -22.25, 27.75 -22.65, 28.15 -22.8, 28.45 -22.8, 28.45 -23.35, 28.05 -23.3, 27.85 -23.1, 27.3 -22.8, 26.85 -22.7, 25.55 -22.1, 25.2 -22.05, 24.4 -21.65, 23.95 -21.55, 23.25 -21.2, 22.95 -21.15, 22.55 -20.9, 22.25 -20.85, 22.15 -20.75, 20.9 -20.35, 20.65 -20.2, 20.05 -20.05, 19.85 -19.9, 19.65 -19.9, 19.4 -19.75, 19.15 -19.75, 18.65 -19.55, 18.65 -19.25, 18.45 -19.05, 18.15 -19.05, 18 -19.3, 17.75 -19.15, 17.4 -19.15, 17.55 -18.6, 17.55 -18.25, 17.2 -17.9, 17.05 -17.6, 17.25 -17.6, 17.8 -18, 18.1 -17.9, 18.8 -17.95, 19.2 -17.8, 19.35 -17.65, 19.35 -17.45, 19.55 -17.2, 20 -17.25)), ((-33.2 -7.3, -31.65 -7.3, -31.4 -7.35, -31.4 -7.65, -31.15 -7.8, -30.75 -7.6, -30.15 -7.65, -29.9 -8.05, -29.95 -8.35, -30 -8.05, -30.2 -7.85, -30.8 -7.8, -31.2 -8.35, -31.25 -9, -31 -9.15, -30.65 -9.05, -30.65 -9.25, -29.65 -10.4, -29.3 -10.95, -28.85 -11.25, -28.4 -11.3, -28.2 -11.2, -27.9 -11.25, -27.7 -11.15, -26.9 -11.2, -26.1 -11, -25.3 -10.95, -25 -10.75, -25 -10.6, -24.55 -10.6, -24.4 -10.85, -24.25 -10.9, -23.7 -10.8, -22.75 -10.8, -22.4 -10.9, -22.8 -10.9, -22.95 -11.05, -23.85 -11.1, -24.75 -10.95, -25.05 -11.1, -25.4 -11.15, -26.3 -11.15, -26.6 -11.35, -26.75 -11.25, -27.75 -11.25, -28 -11.3, -28.1 -11.4, -28.6 -11.4, -28.7 -11.5, -28.7 -11.8, -28.5 -12.1, -28.2 -12.3, -27.9 -12.25, -27.9 -12.7, -27.35 -13.3, -27.1 -13.35, -27.05 -13.65, -26.4 -14.35, -26.25 -14.4, -25.95 -14.3, -26.2 -14.5, -26.2 -14.6, -26.45 -14.6, -26.55 -14.7, -26.6 -14.25, -27.1 -13.75, -27.55 -13.7, -27.5 -13.35, -28.05 -12.8, -28.3 -12.8, -28.6 -12.5, -28.6 -12.3, -28.8 -12.15, -28.8 -11.95, -28.95 -11.8, -29.25 -11.8, -29.25 -11.7, -29.5 -11.45, -30 -11.35, -29.85 -11.15, -29.85 -10.95, -30 -10.8, -30.2 -10.75, -30.25 -10.6, -30.7 -10.1, -30.75 -9.9, -31.1 -9.6, -31.3 -9.3, -31.35 -8.95, -31.5 -8.8, -32.75 -8.75, -32.75 -8.65, -33.05 -8.4, -33.35 -8.4, -33.5 -8.7, -34.35 -8.8, -34.5 -8.95, -34.6 -9.9, -34.7 -9.95, -34.75 -9.5, -34.65 -8.8, -34.75 -8.25, -34.9 -8.1, -35.45 -8.1, -36.05 -7.5, -36.15 -7.25, -36.05 -7.2, -36 -7.4, -35.85 -7.55, -35.55 -7.7, -35.1 -7.55, -34.95 -7.4, -35 -7.05, -35.55 -6.5, -35.85 -6.5, -35.95 -6.6, -36 -6.55, -35.8 -6.35, -35.8 -6.15, -35.35 -6.05, -34.8 -6.65, -34.75 -7.1, -34.45 -7.4, -34.2 -7.5, -33.8 -7.55, -33.2 -7.3)), ((1.65 -0.55, 1.65 0, 2 0.05, 2.4 0.45, 3.55 0.45, 3.25 0.3, 3.3 -0.3, 3.05 -0.6, 3.05 -1.05, 3.75 -1.55, 4.05 -1.6, 4.35 -1.9, 4.35 -2.55, 4.65 -2.75, 4.65 -3.05, 4.85 -3.2, 5.2 -3.25, 5.4 -3.5, 5.6 -3.55, 5.9 -3.35, 5.9 -2.9, 6 -2.8, 6.25 -2.8, 6.35 -3.9, 6.2 -4.15, 6 -4.3, 5.95 -4.9, 6.35 -5.1, 6.45 -5.25, 6.4 -6.9, 6.65 -7.05, 7.8 -7.05, 8 -7.2, 8.05 -7.6, 7.9 -7.75, 7.9 -7.95, 7.75 -8.1, 7.75 -8.4, 8.05 -8.6, 8.25 -8.5, 8.55 -8.5, 8.85 -8.65, 9.4 -8.6, 9.55 -8.45, 9.45 -7.85, 9.65 -7.55, 9.65 -7.3, 9.9 -7.1, 9.95 -6.9, 10.4 -7.15, 10.8 -7.15, 11.05 -7.35, 11.6 -7.55, 11.55 -7.8, 11.3 -8, 11.3 -8.4, 11.5 -8.55, 12.15 -8.55, 12.3 -8.4, 12.3 -8.05, 12.45 -8.05, 12.5 -8.65, 12.75 -8.8, 12.8 -9.15, 12.6 -9.3, 12.6 -9.65, 12.7 -9.75, 12.8 -10.3, 13 -10.45, 13 -10.75, 12.85 -11.2, 12.7 -11.35, 12.5 -11.15, 12.15 -11.2, 12.4 -11, 12.4 -10.7, 12.25 -10.55, 11.95 -10.55, 11.75 -10.7, 11.6 -10.5, 11.25 -10.55, 11.3 -10.25, 11.85 -10.35, 12.25 -10.25, 12.4 -10.1, 12.4 -9.25, 12 -8.75, 11 -8.7, 10.8 -8.85, 10.7 -9.05, 9.85 -9.1, 9.7 -8.95, 9.2 -9, 9 -8.8, 8.5 -8.8, 8.15 -8.9, 8 -9.05, 7.6 -9, 7.5 -9.1, 7.4 -9, 7.1 -9, 7 -9.1, 7.05 -9.5, 7.15 -9.6, 7.4 -9.65, 7.45 -9.9, 7.8 -10.1, 8.15 -10.05, 8.3 -9.9, 8.3 -9.6, 8.4 -9.6, 8.35 -10, 8.6 -10.15, 9.1 -10.2, 9.35 -10.05, 10.15 -10.05, 10.3 -10.2, 9.9 -10.3, 9.65 -10.55, 8.75 -10.65, 8.5 -10.35, 7.65 -10.3, 7.45 -10.2, 7.05 -10.25, 7.05 -10, 6.9 -9.85, 6.7 -9.85, 6.55 -9.75, 5.55 -9.75, 5.65 -8.55, 5.5 -8.25, 5.5 -8.05, 5.6 -7.95, 5.65 -6.95, 5.9 -6.75, 5.9 -6.2, 5.8 -5.8, 5.9 -5.7, 5.9 -5.35, 5.8 -5.25, 5.8 -4.95, 5.65 -4.8, 5.35 -4.75, 5.7 -4.7, 5.85 -4.55, 5.85 -4.35, 5.65 -4.15, 4.65 -4.15, 4.55 -4.25, 4.5 -5.2, 4.5 -4.25, 4.4 -4.15, 4.45 -3.6, 4.3 -3.45, 4.3 -3.3, 3.85 -2.9, 4.2 -2.65, 4.2 -2.2, 3.8 -1.8, 3.2 -1.8, 3.05 -2.1, 2.8 -2.15, 2.65 -2.35, 2.55 -2.25, 2.25 -2.25, 1.85 -2.4, 1.55 -2.65, 1.35 -2.65, 1 -2.9, 0.65 -3, 0.5 -3.2, 0.35 -3.05, -0.5 -3, -0.6 -3.1, -0.6 -3.35, -1 -3.65, -1.2 -3.6, -1.45 -3.35, -1.45 -3.15, -0.45 -2.65, -0.2 -2.45, 0.25 -2.4, 0.45 -2.15, 0.95 -1.95, 2 -1.3, 2 -0.7, 1.85 -0.55, 1.65 -0.55), (6 -9.25, 6 -9.55, 6.25 -9.7, 6.5 -9.65, 6.65 -9.5, 6.65 -9.25, 6.45 -9.05, 6.15 -9.05, 6 -9.25), (9.9 -7.95, 9.9 -8.25, 10.15 -8.4, 10.3 -8.35, 10.45 -8.2, 10.45 -8, 10.3 -7.85, 10 -7.85, 9.9 -7.95), (6.3 -8, 6.3 -8.3, 6.55 -8.5, 6.85 -8.5, 7.1 -8.25, 7.1 -8, 6.85 -7.8, 6.5 -7.8, 6.3 -8), (2.3 0.15, 2.35 -0.35, 2.6 -0.55, 2.9 -0.55, 3.2 -0.25, 3.2 0.1, 2.95 0.4, 2.5 0.4, 2.3 0.15)), ((-24.1 -0.3, -23.35 -0.75, -23 -1.05, -22.4 -1.9, -22.1 -1.9, -21.65 -1.6, -21 -1.6, -20.8 -1.5, -20.55 -1.5, -20.4 -1.7, -20.4 -2.05, -20.25 -2.6, -20.35 -2.65, -20.45 -2.55, -20.5 -1.8, -20.65 -1.65, -21.4 -1.75, -21.55 -1.85, -21.75 -1.85, -21.85 -1.95, -22.15 -1.95, -22.25 -2.05, -22.2 -2.5, -21.95 -2.65, -21.95 -3.3, -21.75 -3.65, -21.75 -4.05, -21.9 -4.45, -21.9 -4.8, -22.25 -5.5, -22.3 -5.9, -22.45 -5.95, -22.4 -5.45, -22.15 -5.15, -22.1 -4.65, -22.25 -4.5, -22.5 -4.5, -22.5 -4.2, -22.4 -4.2, -22.2 -3.95, -22.25 -3.25, -22.45 -3.05, -22.8 -3.05, -22.95 -2.55, -23.55 -1.7, -24.05 -1.25, -24.25 -1.2, -24.65 -0.9, -25.1 -0.75, -26.25 -0.7, -26.85 -0.8, -27.5 -1.05, -27.8 -1.25, -28.7 -2.25, -28.7 -2.4, -29.05 -3.1, -29.05 -4.15, -28.85 -5.05, -28.65 -5.45, -29 -5.7, -29.25 -5.7, -29.45 -5.35, -29.45 -5.05, -29.65 -4.85, -29.65 -3.25, -29.35 -2.4, -29.2 -1.65, -28.9 -1.25, -28.9 -1.1, -28.8 -1.1, -28.1 -0.45, -27.35 -0.05, -27.15 -0.05, -26.85 0.1, -25.8 0.15, -24.75 0.05, -24.3 -0.1, -24.1 -0.3), (-26.85 -0.55, -26.75 -0.65, -26.55 -0.7, -26.25 -0.5, -26.25 -0.3, -26.4 -0.15, -26.75 -0.15, -26.85 -0.25, -26.85 -0.55)), ((-5.2 9.85, -5.2 9.95, -4.65 10.2, -4.5 10.35, -4.5 10.65, -4.3 10.7, -3.95 11.05, -4 11.5, -3.9 11.5, -3.7 11.7, -3.7 11.9, -3.85 12.05, -4.2 12.05, -4.35 11.9, -4.35 11.8, -4.45 11.8, -4.85 11.4, -4.85 10.8, -5 10.9, -5.45 10.9, -5.9 10.45, -5.8 10.7, -5.4 11.05, -5.15 11.15, -5 11.3, -5 11.4, -3.75 12.6, -3.4 12.5, -3.1 12.7, -3.1 12.8, -3 12.8, -3 12.5, -2.45 12.05, -1.65 11.1, 0.5 9.05, 0.65 9, 0.9 8.7, 1.5 8.25, 1.7 8.2, 2 8.4, 2 9, 2.2 9.4, 2.3 9.35, 2.15 9.2, 2.2 8.55, 2.45 8.25, 2.9 8, 3.3 8.1, 3.85 8.55, 4.05 8.95, 4.05 8.75, 3.8 8.5, 3.7 8.25, 2.9 7.75, 2.9 7.45, 3.1 7.2, 3.4 7.1, 4.05 6.5, 4.6 6.25, 4.75 6.05, 5.1 5.95, 5.5 5.7, 5.8 5.9, 5.75 6.5, 5.55 6.8, 5.4 7.25, 5.25 8.35, 5.15 8.45, 5.15 8.75, 5.3 8.75, 5.85 6.65, 6 6.5, 6 6, 6.1 5.9, 6.1 5.7, 6.25 5.5, 6.6 4.35, 7.1 3.3, 7.15 2.9, 7.4 2.6, 7.15 2.45, 7.05 2.9, 6.75 3.35, 6.65 3.85, 6.3 4.35, 5.35 4.35, 5.2 4.2, 5 4.2, 4.85 4.35, 4.3 4.6, 4.1 4.8, 3.7 4.95, 3.55 5.15, 3.35 5.15, 3.2 5.3, 2.95 5.35, 2.6 5.6, 2.6 5.75, 2.45 5.9, 2.1 5.9, 2.1 6, 2.25 6.15, 2.25 6.35, 2.1 6.5, 1.9 6.5, 1.9 6.65, 1.75 6.8, 1.3 6.8, 1.15 6.6, 1.05 6.75, 1.25 6.9, 1.25 7.1, 1.1 7.25, 0.8 7.25, 0.7 7.05, 0.4 7.15, 0.25 7.35, 0.15 7.35, -0.05 7.6, -0.35 7.8, -0.35 7.9, -0.15 8.05, -0.15 8.25, -0.3 8.4, -0.6 8.4, -0.7 8.2, -0.8 8.2, -1.8 9.1, -1.8 9.25, -1.95 9.4, -2.15 9.4, -2.15 9.5, -2.5 9.75, -2.5 9.85, -2.3 9.85, -2.15 10, -2.15 10.3, -2.35 10.5, -2.5 10.5, -2.7 10.75, -2.9 10.8, -3.05 11, -3.7 10.9, -5 9.7, -5 9.35, -4.9 9.25, -4.6 9.2, -4.6 9.1, -5.3 8.4, -6.1 7.8, -6.4 8, -6.7 8, -7.15 8.5, -7.1 8.6, -6.7 8.6, -6.55 8.75, -6.55 9, -6.75 9.25, -7.15 9.3, -7.3 9.75, -6.95 9.65, -6.6 9.7, -6.35 9.55, -6.45 9.4, -6.45 8.9, -6.05 8.65, -5.75 8.75, -5.5 9.05, -5.55 9.45, -5.2 9.85)))
