MULTIPOLYGON (((30.186 -23.877, 30.005 -23.809, 32.067 -20.773, 38.763 -23.498, 40.316 -25.682, 41.636 -26.401, 41.479 -26.7, 38.828 -24.453, 32.26 -20.996, 30.186 -23.877)), ((28.09 -23.09, 16.071 -18.576, 16.071 -17.937, 16.154 -18.475, 28.09 -23.09)), ((15.924 -16.981, 15.951 -17.162, 12.499 -16.271, 12.616 -14.624, 12.873 -16.003, 15.924 -16.981)), ((57.035 -14.197, 56.231 -15.72, 56.752 -13.944, 57.035 -14.197)), ((-34.745 -14.831, -34.999 -14.494, -31.264 -12.626, -34.745 -14.831)), ((-31.975 9.864, -28.966 6.856, -28.978 6.845, -28.948 6.811, -31.114 4.479, -30.968 4.343, -28.657 6.831, -28.673 6.846, -22.413 12.331, -20.349 10.324, -20.209 10.468, -22.386 12.584, -22.267 12.691, -25.079 15.738, -23.628 17.489, 4.274 17.316, 6.383 9.506, 6.559 9.553, 6.585 9.454, 6.478 9.49, 6.606 9.369, 6.622 9.309, 6.698 9.283, 10.755 5.444, 10.509 5.421, 10.662 4.332, 9.511 4.28, 8.538 3.94, 8.183 4.622, 6.69 9.161, 6.5 9.099, 7.999 4.544, 8.347 3.873, 8.346 3.872, 8.412 3.684, 8.44 3.694, 9.556 1.545, 9.734 1.637, 8.631 3.76, 9.549 4.082, 10.69 4.133, 10.939 2.354, 11.027 2.354, 11.043 2.264, 11.239 2.298, 11.23 2.354, 12.945 2.354, 12.504 3.788, 14.307 2.082, 43.403 -11.112, 51.154 -11.226, 51.216 -13.115, 53.529 -11.251, 52.091 -9.774, 56.746 -13.939, 48.756 -20.067, 53.628 -24.578, 53.813 -23.952, 54.269 -24.395, 50.582 -28.428, 46.722 -26.7, 46.454 -26.82, 46.793 -26.582, 50.719 -28.118, 50.791 -27.932, 46.815 -26.376, 46.779 -26.469, 46.721 -26.387, 45.498 -27.248, 45.229 -27.369, 44.781 -26.573, 44.313 -26.251, 44.129 -25.951, 43.799 -25.896, 43.038 -25.372, 42.509 -25.681, 42.055 -25.605, 41.797 -26.096, 41.65 -26.181, 40.452 -25.528, 38.893 -23.334, 31.993 -20.527, 29.918 -23.582, 16.334 -18.331, 16.102 -16.829, 13.047 -15.849, 12.588 -13.378, 10.993 -12.67, 8.179 -10.602, 8.061 -10.764, 10.893 -12.844, 12.41 -13.518, 12.453 -13.746, 10.425 -12.757, 6.449 -9.761, 6.388 -9.761, 6.601 -9.748, 8.265 -10.608, 12.351 -10.904, 12.79 -8.334, 5.51 -8.451, 3.629 -9.078, 2.038 -8.43, -0.393 -11.499, -10.442 -10.343, -11.499 -13.39, 0.442 -12.278, 1.288 -11.525, -3.403 -16.329, -6.341 -18.691, -9.971 -21.169, -14.638 -24.395, -15.79 -23.128, -19.996 -20.304, -24.836 -15.926, -29.379 -11.715, -16.879 -13.451, -17.434 -10.176, -28.649 -10.696, -31.407 -7.132, -34.84 -6.711, -35.183 -14.251, -39.354 -8.724, -41.999 -5.354, -38.71 -8.907, -38.71 -6.982, -36.196 -5.463, -36.974 -4.231, -42.469 -4.704, -43.987 -2.331, -37.954 -2.829, -37.173 -1.688, -37.339 -1.576, -38.054 -2.621, -44.122 -2.119, -44.136 -2.098, -43.791 1.819, -42.777 2.61, -31.975 9.864), (19.788 -3.279, 19.96 -8.212, 18.569 -9.723, 20.856 -10.739, 21.427 -9.596, 21.31 -2.845, 19.939 -2.976, 19.788 -3.279), (17.178 -6.544, 19.232 -4.802, 16.843 -2.475, 15.347 -3.722, 15.595 -4.961, 17.178 -6.544), (-2.477 -4.111, 4.086 -7.483, 4.68 -2.968, 4.482 -2.942, 3.924 -7.175, -2.057 -4.101, 3.135 -1.143, 3.035 -0.969, -2.477 -4.111), (12.414 -2.311, 14.786 -2.129, 15.591 0.72, 10.557 0.473, 12.414 -2.311), (-34.599 0.883, -34.733 1.033, -36.345 -0.406, -36.211 -0.556, -34.599 0.883), (-32.838 2.928, -34.104 1.662, -33.962 1.52, -32.696 2.786, -32.838 2.928), (-9.756 12.025, -9.626 11.873, -4.125 16.523, -2.346 14.15, -7.397 9.723, -7.265 9.573, -2.074 14.122, -4.093 16.813, -9.756 12.025), (-18.032 12.836, -17.163 17.243, -21.817 16.746, -18.032 12.836), (30.76 -13.636, 29.674 -14.914, 32.242 -15.83, 33.984 -15.89, 35.639 -13.256, 33.174 -12.516, 30.76 -13.636), (36.291 -16.05, 40.5 -16.46, 41.145 -17.163, 42.752 -16.843, 42.372 -15.767, 42.023 -11.922, 37.128 -9.773, 36.291 -16.05), (23.771 -14.12, 24.912 -11.775, 23.786 -11.179, 22.277 -12.561, 23.771 -14.12), (27.422 -14.589, 30.462 -12.504, 30.462 -10.26, 30.339 -8.725, 28.596 -8.725, 28.537 -10.448, 25.546 -13.088, 27.422 -14.589), (32.162 -12.32, 33.512 -12.32, 33.512 -8.087, 32.102 -8.155, 32.162 -12.32), (22.619 -10.063, 24.899 -10.442, 24.458 -7.42, 22.368 -8.243, 22.619 -10.063), (26.694 -5.85, 26.694 -8.125, 31.115 -7.865, 26.694 -5.85), (22.728 -3.065, 22.605 -6.023, 24.252 -6.484, 24.129 -3.333, 22.728 -3.065)), ((-32.022 10.073, -40.573 4.332, -24.195 17.119, -25.421 15.639, -25.404 15.625, -32.022 10.073)), ((4.548 17.318, 6.113 11.276, 4.481 17.319, 4.548 17.318)))
